[{"OBJECT_NAME":"STARLINK-1448","OBJECT_ID":"2020-035J","EPOCH":"2026-03-10T00:00:02.999808","MEAN_MOTION":15.52376322,"ECCENTRICITY":0.00079659,"INCLINATION":53.0511,"RA_OF_ASC_NODE":51.24,"ARG_OF_PERICENTER":79.1097,"MEAN_ANOMALY":73.0484,"EPHEMERIS_TYPE":0,"CLASSIFICATION_TYPE":"U","NORAD_CAT_ID":45665,"ELEMENT_SET_NO":999,"REV_AT_EPOCH":591,"BSTAR":0.001926692,"MEAN_MOTION_DOT":0.00121047,"MEAN_MOTION_DDOT":0},{"OBJECT_NAME":"ISS OBJECT YC","OBJECT_ID":"1998-067YC","EPOCH":"2026-03-09T06:24:39.594816","MEAN_MOTION":15.52676056,"ECCENTRICITY":0.00078962,"INCLINATION":51.6312,"RA_OF_ASC_NODE":73.8379,"ARG_OF_PERICENTER":148.506,"MEAN_ANOMALY":211.6404,"EPHEMERIS_TYPE":0,"CLASSIFICATION_TYPE":"U","NORAD_CAT_ID":67686,"ELEMENT_SET_NO":999,"REV_AT_EPOCH":472,"BSTAR":0.00082449301,"MEAN_MOTION_DOT":0.000517,"MEAN_MOTION_DDOT":0}]
